NORAD_CAT_ID,OBJECT_NAME,OBJECT_TYPE,EPOCH,MEAN_MOTION,ECCENTRICITY,INCLINATION,RA_OF_ASC_NODE,ARG_OF_PERICENTER,MEAN_ANOMALY,BSTAR,MEAN_MOTION_DOT,MEAN_MOTION_DDOT,TLE_LINE0,TLE_LINE1,TLE_LINE2,SEMIMAJOR_AXIS,PERIOD,APOGEE,PERIGEE,DECAYED
49459.0,STARLINK-3141,PAYLOAD,2023-05-31 05:55:49,15.08853748,0.0001332,53.2183,88.6367,92.2818,267.8327,0.00011537,1.549e-05,0.0,0 STARLINK-3141,1 49459U 21104BD  23151.24709610  .00001549  00000-0  11537-3 0  9999,2 49459  53.2183  88.6367 0001332  92.2818 267.8327 15.08853748 85784,6917.838,95.437,540.625,538.782,0.0
49459.0,STARLINK-3141,PAYLOAD,2023-05-31 20:14:18,15.08833655,0.0001239,53.2183,85.9605,80.6715,279.4417,0.00010079,1.316e-05,0.0,0 STARLINK-3141,1 49459U 21104BD  23151.84327130  .00001316  00000-0  10079-3 0  9990,2 49459  53.2183  85.9605 0001239  80.6715 279.4417 15.08833655 85876,6917.9,95.438,540.622,538.908,0.0
49459.0,STARLINK-3141,PAYLOAD,2023-06-01 02:35:50,15.08837168,0.0001189,53.2183,84.7716,85.8572,274.2556,0.00012788,1.748e-05,0.0,0 STARLINK-3141,1 49459U 21104BD  23152.10822910  .00001748  00000-0  12788-3 0  9994,2 49459  53.2183  84.7716 0001189  85.8572 274.2556 15.08837168 86981,6917.889,95.438,540.577,538.932,0.0
49459.0,STARLINK-3141,PAYLOAD,2023-06-01 05:46:37,15.08837045,0.0001182,53.2182,84.1774,87.8833,272.2294,0.00013083,1.795e-05,0.0,0 STARLINK-3141,1 49459U 21104BD  23152.24071004  .00001795  00000-0  13083-3 0  9990,2 49459  53.2182  84.1774 0001182  87.8833 272.2294 15.08837045 85938,6917.889,95.438,540.572,538.937,0.0
49459.0,STARLINK-3141,PAYLOAD,2023-06-02 02:26:36,15.08862645,0.000119,53.2168,80.3124,99.5962,260.5165,0.00022219,3.252e-05,0.0,0 STARLINK-3141,1 49459U 21104BD  23153.10181222  .00003252  00000-0  22219-3 0  9991,2 49459  53.2168  80.3124 0001190  99.5962 260.5165 15.08862645 87136,6917.811,95.436,540.499,538.853,0.0
49459.0,STARLINK-3141,PAYLOAD,2023-06-03 02:17:25,15.08827036,0.0001072,53.2166,75.8541,113.2904,246.8201,-6.4729e-05,-1.317e-05,0.0,0 STARLINK-3141,1 49459U 21104BD  23154.09543293 -.00001317  00000-0 -64729-4 0  9995,2 49459  53.2166  75.8541 0001072 113.2904 246.8201 15.08827036 87284,6917.92,95.438,540.527,539.043,0.0
49459.0,STARLINK-3141,PAYLOAD,2023-06-04 02:08:12,15.08842471,0.0001263,53.2178,71.3906,84.7872,275.3264,5.015e-05,5.1e-06,0.0,0 STARLINK-3141,1 49459U 21104BD  23155.08903269  .00000510  00000-0  50150-4 0  9993,2 49459  53.2178  71.3906 0001263  84.7872 275.3264 15.08842471 87434,6917.873,95.437,540.612,538.864,0.0
49459.0,STARLINK-3141,PAYLOAD,2023-06-04 03:43:35,15.08838552,0.0001421,53.2186,71.0902,76.457,283.6581,0.0001965,2.841e-05,0.0,0 STARLINK-3141,1 49459U 21104BD  23155.15527639  .00002841  00000-0  19650-3 0  9992,2 49459  53.2186  71.0902 0001421  76.4570 283.6581 15.08838552 86376,6917.885,95.438,540.733,538.767,0.0
49459.0,STARLINK-3141,PAYLOAD,2023-06-05 13:06:41,15.0885168,0.0001359,53.2166,64.8484,94.4867,265.628,0.00037379,5.668e-05,0.0,0 STARLINK-3141,1 49459U 21104BD  23156.54631497  .00005668  00000-0  37379-3 0  9992,2 49459  53.2166  64.8484 0001359  94.4867 265.6280 15.08851680 86584,6917.845,95.437,540.65,538.77,0.0
49459.0,STARLINK-3141,PAYLOAD,2023-06-05 21:03:37,15.08841084,0.0001336,53.2165,63.3622,98.6955,261.4188,4.5148e-05,4.31e-06,0.0,0 STARLINK-3141,1 49459U 21104BD  23156.87751688  .00000431  00000-0  45148-4 0  9990,2 49459  53.2165  63.3622 0001336  98.6955 261.4188 15.08841084 86634,6917.877,95.437,540.666,538.818,0.0
49459.0,STARLINK-3141,PAYLOAD,2023-06-06 01:49:46,15.08844826,0.0001266,53.2175,62.4706,96.3429,263.7708,8.2858e-05,1.031e-05,0.0,0 STARLINK-3141,1 49459U 21104BD  23157.07623545  .00001031  00000-0  82858-4 0  9999,2 49459  53.2175  62.4706 0001266  96.3429 263.7708 15.08844826 87733,6917.866,95.437,540.606,538.855,0.0
49459.0,STARLINK-3141,PAYLOAD,2023-06-06 03:25:09,15.088479,0.000126,53.2177,62.1737,94.7614,265.3522,0.0001225,1.663e-05,0.0,0 STARLINK-3141,1 49459U 21104BD  23157.14247363  .00001663  00000-0  12250-3 0  9996,2 49459  53.2177  62.1737 0001260  94.7614 265.3522 15.08847900 86678,6917.856,95.437,540.593,538.85,0.0
49459.0,STARLINK-3141,PAYLOAD,2023-06-06 17:43:38,15.08841071,0.0001182,53.2176,59.4973,96.2011,263.9115,1.1237e-07,-2.86e-06,0.0,0 STARLINK-3141,1 49459U 21104BD  23157.73863689 -.00000286  00000-0  11237-6 0  9994,2 49459  53.2176  59.4973 0001182  96.2011 263.9115 15.08841071 86764,6917.877,95.437,540.56,538.924,0.0
49459.0,STARLINK-3141,PAYLOAD,2023-06-07 00:05:10,15.08845175,0.0001185,53.2177,58.3081,96.1759,263.9369,2.2011e-05,6.3e-07,0.0,0 STARLINK-3141,1 49459U 21104BD  23158.00359467  .00000063  00000-0  22011-4 0  9991,2 49459  53.2177  58.3081 0001185  96.1759 263.9369 15.08845175 86809,6917.865,95.437,540.549,538.91,0.0
49459.0,STARLINK-3141,PAYLOAD,2023-06-07 17:34:25,15.08835588,0.0001235,53.2178,55.0376,92.6203,267.4931,8.1932e-05,1.016e-05,0.0,0 STARLINK-3141,1 49459U 21104BD  23158.73224124  .00001016  00000-0  81932-4 0  9998,2 49459  53.2178  55.0376 0001235  92.6203 267.4931 15.08835588 87983,6917.894,95.438,540.613,538.905,0.0
49459.0,STARLINK-3141,PAYLOAD,2023-06-07 20:45:12,15.08832908,0.0001158,53.2176,54.4423,95.6667,264.4458,4.5416e-05,4.35e-06,0.0,0 STARLINK-3141,1 49459U 21104BD  23158.86472313  .00000435  00000-0  45416-4 0  9998,2 49459  53.2176  54.4423 0001158  95.6667 264.4458 15.08832908 86936,6917.902,95.438,540.568,538.966,0.0
49459.0,STARLINK-3141,PAYLOAD,2023-06-07 23:55:58,15.0883641,0.0001072,53.2174,53.848,90.5663,269.5452,9.0071e-05,1.146e-05,0.0,0 STARLINK-3141,1 49459U 21104BD  23158.99720200  .00001146  00000-0  90071-4 0  9990,2 49459  53.2174  53.8480 0001072  90.5663 269.5452 15.08836410 86959,6917.891,95.438,540.498,539.015,0.0
49459.0,STARLINK-3141,PAYLOAD,2023-06-08 22:11:21,15.08846636,9.25e-05,53.2175,49.685,83.0658,277.044,0.00018129,2.599e-05,0.0,0 STARLINK-3141,1 49459U 21104BD  23159.92455841  .00002599  00000-0  18129-3 0  9996,2 49459  53.2175  49.6850 0000925  83.0658 277.0440 15.08846636 88168,6917.86,95.437,540.365,539.085,0.0
49459.0,STARLINK-3141,PAYLOAD,2023-06-09 09:19:03,15.08843769,9.3e-05,53.2175,47.6035,84.0076,276.1022,8.6938e-05,1.096e-05,0.0,0 STARLINK-3141,1 49459U 21104BD  23160.38823933  .00001096  00000-0  86938-4 0  9994,2 49459  53.2175  47.6035 0000930  84.0076 276.1022 15.08843769 87161,6917.869,95.437,540.377,539.091,0.0
49459.0,STARLINK-3141,PAYLOAD,2023-06-09 18:51:23,15.08828865,9.4e-05,53.2173,45.8205,95.1251,264.9848,-4.873e-05,-1.063e-05,0.0,0 STARLINK-3141,1 49459U 21104BD  23160.78568833 -.00001063  00000-0 -48730-4 0  9997,2 49459  53.2173  45.8205 0000940  95.1251 264.9848 15.08828865 87225,6917.914,95.438,540.43,539.129,0.0
49459.0,STARLINK-3141,PAYLOAD,2023-06-10 01:12:56,15.08832721,9.84e-05,53.2181,44.631,100.6777,259.4326,4.3524e-05,4.05e-06,0.0,0 STARLINK-3141,1 49459U 21104BD  23161.05065025  .00000405  00000-0  43524-4 0  9996,2 49459  53.2181  44.6310 0000984 100.6777 259.4326 15.08832721 88330,6917.903,95.438,540.448,539.087,0.0
49459.0,STARLINK-3141,PAYLOAD,2023-06-10 09:09:51,15.08839792,9.97e-05,53.2185,43.1436,89.2013,270.9093,8.709e-05,1.099e-05,0.0,0 STARLINK-3141,1 49459U 21104BD  23161.38184540  .00001099  00000-0  87090-4 0  9992,2 49459  53.2185  43.1436 0000997  89.2013 270.9093 15.08839792 88385,6917.881,95.438,540.436,539.056,0.0
49459.0,STARLINK-3141,PAYLOAD,2023-06-10 17:06:47,15.08842401,0.0001011,53.2189,41.6566,90.3787,269.7321,1.5079e-05,-4.8e-07,0.0,0 STARLINK-3141,1 49459U 21104BD  23161.71304647 -.00000048  00000-0  15079-4 0  9993,2 49459  53.2189  41.6566 0001011  90.3787 269.7321 15.08842401 87363,6917.873,95.437,540.437,539.039,0.0
49459.0,STARLINK-3141,PAYLOAD,2023-06-11 09:00:38,15.08839818,0.0001109,53.2188,38.6815,83.8529,276.2589,5.9548e-05,6.6e-06,0.0,0 STARLINK-3141,1 49459U 21104BD  23162.37544655  .00000660  00000-0  59548-4 0  9999,2 49459  53.2188  38.6815 0001109  83.8529 276.2589 15.08839818 87462,6917.881,95.438,540.513,538.979,0.0
49459.0,STARLINK-3141,PAYLOAD,2023-06-11 15:22:11,15.08833983,0.000117,53.2188,37.493,87.1703,272.9423,0.00012326,1.674e-05,0.0,0 STARLINK-3141,1 49459U 21104BD  23162.64040950  .00001674  00000-0  12326-3 0  9996,2 49459  53.2188  37.4930 0001170  87.1703 272.9423 15.08833983 88576,6917.899,95.438,540.573,538.954,0.0
49459.0,STARLINK-3141,PAYLOAD,2023-06-11 21:43:43,15.08837246,0.0001177,53.2187,36.3031,92.2914,267.8213,0.00013418,1.848e-05,0.0,0 STARLINK-3141,1 49459U 21104BD  23162.90536796  .00001848  00000-0  13418-3 0  9999,2 49459  53.2187  36.3031 0001177  92.2914 267.8213 15.08837246 87545,6917.889,95.438,540.568,538.94,0.0
49459.0,STARLINK-3141,PAYLOAD,2023-06-12 08:51:25,15.08841393,0.0001091,53.2186,34.2214,90.3757,269.7361,6.491e-05,7.45e-06,0.0,0 STARLINK-3141,1 49459U 21104BD  23163.36904667  .00000745  00000-0  64910-4 0  9995,2 49459  53.2186  34.2214 0001091  90.3757 269.7361 15.08841393 87614,6917.876,95.437,540.496,538.986,0.0
49459.0,STARLINK-3141,PAYLOAD,2023-06-12 18:23:43,15.08867665,0.0001391,53.219,32.4372,81.7031,278.4119,-0.00037819,-6.306e-05,0.0,0 STARLINK-3141,1 49459U 21104BD  23163.76648066 -.00006306  00000-0 -37819-3 0  9995,2 49459  53.2190  32.4372 0001391  81.7031 278.4119 15.08867665 88749,6917.796,95.436,540.623,538.699,0.0
49459.0,STARLINK-3141,PAYLOAD,2023-06-12 21:34:30,15.08840519,0.0001221,53.2188,31.8425,88.5453,271.5679,4.1856e-05,3.78e-06,0.0,0 STARLINK-3141,1 49459U 21104BD  23163.89896823  .00000378  00000-0  41856-4 0  9993,2 49459  53.2188  31.8425 0001221  88.5453 271.5679 15.08840519 87690,6917.879,95.438,540.588,538.899,0.0
49459.0,STARLINK-3141,PAYLOAD,2023-06-13 00:45:16,15.08846752,0.0001155,53.2187,31.2479,85.3495,274.7629,5.159e-05,5.33e-06,0.0,0 STARLINK-3141,1 49459U 21104BD  23164.03144364  .00000533  00000-0  51590-4 0  9995,2 49459  53.2187  31.2479 0001155  85.3495 274.7629 15.08846752 88785,6917.86,95.437,540.524,538.926,0.0
